ALOS-4 (DAICHI-4)       
1 60182U 24123A   24275.17785547  .00007998  00000+0  10767-2 0  9998
2 60182  97.9219  10.3104 0001495  99.3828 260.7553 14.79467424 13610
